GLOBALSTAR M094         
1 39074U 13005C   24212.92714229 -.00000092  00000+0  66569-4 0  9996
2 39074  51.9961  80.2591 0000547  47.3499 312.7414 12.62266352531807
GLOBALSTAR M096         
1 39075U 13005D   24212.94041138 -.00000102  00000+0  11456-4 0  9998
2 39075  52.0070 128.4831 0000337   5.5808 354.5062 12.62267994530726
GLOBALSTAR M078         
1 39076U 13005E   24212.67650335 -.00000084  00000+0  10812-3 0  9997
2 39076  51.9844 214.2339 0000983 176.3602 183.7272 12.62273521529318
GLOBALSTAR M095         
1 39077U 13005F   24212.70269092 -.00000081  00000+0  12617-3 0  9990
2 39077  51.9771 211.5090 0000593 219.3271 140.7553 12.62262820529178
GLOBALSTAR M087         
1 52888U 22064A   24212.89630371 -.00000085  00000+0  82747-4 0  9998
2 52888  51.9764  55.9688 0010070 112.8322 247.3643 13.37579822103373
